C/2020 K6 (Rankin),h,09/15.2577/2021,103.6440,291.5263,44.2755,1.002993,5.868595,2000,8.0,4.0
# From MPEC 2020-L09
C/2020 K7 (PANSTARRS),p,10/05.3027/2021,34.5520,60.8413,5.644571,287.4776,2000,8.0,4.0
# From MPEC 2021-BE3
C/2020 K8 (Catalina-ATLAS),h,09/14.5178/2020,31.4175,181.5228,260.0432,1.000233,0.474443,2000,15.0,3.2
# From MPEC 2021-L04
P/2020 K9 (Lemmon-PANSTARRS),e,23.2100,166.2406,196.8873,4.199146,0.1145414,0.32141933,13.4172,06/09.0/2021,2000,g 12.5,4.0
# From MPEC 2021-L04
C/2020 M3 (ATLAS),e,23.4722,71.2457,328.4521,26.86434,0.0070785,0.95279164,1.6023,06/09.0/2021,2000,g 14.5,4.0
# From MPEC 2021-L04
A/2020 M4,e,160.1262,348.6257,104.6451,7919,0.0000014,0.99924832,0.0000,11/23.9111/2020,2000,g 14.5,2.0
# From MPEC 2021-L04
C/2020 M5 (ATLAS),e,93.2223,352.0958,126.3391,29398,0.0000002,0.99989780,0.0000,08/19.8821/2021,2000,g  9.0,4.0
# From MPEC 2021-L04
C/2020 N1 (PANSTARRS),h,03/12.2235/2021,29.7032,279.9812,186.7693,1.000567,1.320686,2000,12.5,4.0
# From MPEC 2020-K19
P/2020 M1 (PANSTARRS),e,8.6604,142.8702,68.6113,5.142459,0.0845177,0.48101316,45.0336,06/09.0/2021,2000,g 14.5,4.0
# From MPEC 2021-AJ0
C/2020 M3 (ATLAS),e,23.4722,71.2457,328.4520,26.86385,0.0070787,0.95279079,1.6024,06/09.0/2021,2000,g 14.5,4.0
# From MPEC 2021-BE3
C/2020 M3 (ATLAS),e,23.4722,71.2457,328.4520,26.86397,0.0070786,0.95279099,1.6024,06/09.0/2021,2000,g 14.5,4.0
# From MPEC 2020-K19
A/2020 M4,e,160.1262,348.6274,104.6518,9475,0.0000011,0.99937174,0.0000,11/23.9596/2020,2000,g 14.5,2.0
# From MPEC 2021-BE3
C/2020 M5 (ATLAS),e,93.2222,352.0957,126.3393,28860,0.0000002,0.99989590,0.0000,08/19.8823/2021,2000,g  9.0,4.0
# From MPEC 2021-BE3
C/2020 N1 (PANSTARRS),h,03/12.2264/2021,29.7032,279.9812,186.7696,1.000523,1.320700,2000,12.5,4.0
# From MPEC 2020-W26
C/2020 N2 (ATLAS),e,161.0343,257.0748,331.2144,108.4375,0.0008728,0.98345430,0.0000,08/23.6821/2020,2000,g 16.0,3.2
# From MPEC 2021-L04
P/2020 O1 (Lemmon-PANSTARRS),e,5.2259,175.9770,104.5427,2.644552,0.2291796,0.11950810,92.1907,06/09.0/2021,2000,g 15.5,4.0
# From MPEC 2021-L04
C/2020 O2 (Amaral),h,08/28.4500/2021,71.7471,256.7558,10.2879,1.002514,4.862202,2000,8.0,3.2
# From MPEC 2021-L04
P/2020 O3 (PANSTARRS),e,8.4410,266.8489,81.6625,4.653879,0.0981706,0.10469214,12.6487,06/09.0/2021,2000,g 12.0,4.0
# From MPEC 2021-BE3
C/2020 P1 (NEOWISE),h,10/20.1793/2020,45.0601,53.5331,8.8928,1.000276,0.342097,2000,14.0,3.2
# From MPEC 2021-L04
C/2020 P3 (ATLAS),e,61.8850,19.4860,82.2480,7191,0.0000016,0.99905267,0.0000,04/20.8710/2021,2000,g  6.0,4.0
# From MPEC 2021-L04
C/2020 PV6 (PANSTARRS),e,128.2392,329.1437,71.3727,41.88541,0.0036359,0.94519162,359.6038,06/09.0/2021,2000,g 10.0,4.0
# From MPEC 2021-BE3
C/2020 Q1 (Borisov),e,142.9181,52.4094,9.9045,59.11334,0.0021686,0.97775663,0.0000,08/14.6502/2020,2000,g 14.0,4.0
# From MPEC 2021-BE3
C/2020 R2 (PANSTARRS),e,53.2236,195.0924,211.7033,410.0106,0.0001187,0.98855562,0.0000,02/24.2713/2022,2000,g  9.0,4.0
# From MPEC 2021-L04
C/2020 R4 (ATLAS),e,164.4632,323.2736,46.7128,97.32348,0.0010265,0.98943079,0.0000,03/01.9377/2021,2000,g 13.5,4.0
# From MPEC 2021-L04
C/2020 S3 (Erasmus),e,19.8664,222.9725,349.8934,189.8046,0.0003769,0.99790131,0.0000,12/12.6767/2020,2000,g 13.5,3.2
# From MPEC 2020-W26
P/2020 R5 (PANSTARRS),e,11.4538,272.9733,82.3738,4.980518,0.0886732,0.31461045,33.3844,06/09.0/2021,2000,g  9.5,6.0
# From MPEC 2020-W26
C/2020 R6 (Rankin),e,82.8218,12.1745,271.9557,555.7064,0.0000752,0.99437406,0.0000,09/10.1918/2019,2000,g 11.0,4.0
# From MPEC 2021-BE3
C/2020 R7 (ATLAS),e,114.8914,268.2769,347.8321,6261,0.0000020,0.99952790,0.0000,09/16.2546/2022,2000,g  7.0,3.2
# From MPEC 2021-BE3
P/2020 S1 (PANSTARRS),e,13.7340,129.4590,254.8922,5.981139,0.0673796,0.50722557,9.6354,06/09.0/2021,2000,g 14.0,4.0
# From MPEC 2021-BE3
C/2020 S2 (PANSTARRS),e,22.3975,197.6822,202.2738,10.18610,0.0303174,0.82760159,5.1251,06/09.0/2021,2000,g 17.0,4.0
# From MPEC 2021-BE3
C/2020 S3 (Erasmus),e,19.8664,222.9723,349.8948,187.7312,0.0003832,0.99787818,0.0000,12/12.6770/2020,2000,g 13.5,3.2
# From MPEC 2021-BE3
C/2020 S4 (PANSTARRS),e,20.5748,117.7130,21.0501,17470,0.0000004,0.99980717,0.0000,02/09.5878/2023,2000,g  8.5,3.2
# From MPEC 2021-BE3
P/2020 S5 (PANSTARRS),e,12.3540,315.9990,53.0431,4.049469,0.1209503,0.33845305,36.8306,06/09.0/2021,2000,g 14.5,4.0
# From MPEC 2021-L04
P/2020 S6 (Leonard),e,15.4589,242.5672,176.6596,3.599663,0.1443149,0.47917278,28.4845,06/09.0/2021,2000,g 16.0,4.0
# From MPEC 2021-L04
C/2020 S8 (Lemmon),e,108.5191,24.0517,160.3349,275.6421,0.0002154,0.99142424,0.0000,04/10.9320/2021,2000,g 12.5,4.0
# From MPEC 2021-L04
C/2020 T2 (Palomar),e,27.8729,83.0482,150.3828,312.0735,0.0001788,0.99341604,0.0000,07/11.1466/2021,2000,g 11.0,3.2
# From MPEC 2021-BE3
P/2020 S7 (PANSTARRS),e,16.0921,328.0185,40.4237,5.023234,0.0875445,0.41050899,17.7583,06/09.0/2021,2000,g 14.5,4.0
# From MPEC 2021-BE3
C/2020 S8 (Lemmon),e,108.5192,24.0519,160.3328,274.8063,0.0002164,0.99139792,0.0000,04/10.9304/2021,2000,g 12.5,4.0
# From MPEC 2021-BE3
C/2020 T2 (Palomar),e,27.8730,83.0483,150.3818,312.7560,0.0001782,0.99343032,0.0000,07/11.1459/2021,2000,g 11.0,3.2
# From MPEC 2021-L04
P/2020 T3 (PANSTARRS),e,7.2954,74.0177,357.0417,3.517714,0.1493871,0.59161632,20.8443,06/09.0/2021,2000,g 18.0,3.2
# From MPEC 2021-BE3
C/2020 T4 (PANSTARRS),h,07/05.2457/2021,83.8166,50.6207,79.6008,1.000150,2.191966,2000,13.0,3.2
# From MPEC 2021-BE3
C/2020 T5 (Lemmon),e,66.6010,237.8615,90.2984,847.3400,0.0000400,0.99777056,0.0000,10/09.6268/2020,2000,g 16.0,4.0
# From MPEC 2021-L04
P/2020 U2 (PANSTARRS),e,6.4211,342.8995,84.6483,3.777718,0.1342331,0.51060113,22.1879,06/09.0/2021,2000,g 18.0,4.0
# From MPEC 2021-BE3
C/2020 U3 (Rankin),e,30.1762,282.6796,124.2653,64.97006,0.0018821,0.96496553,0.2315,06/09.0/2021,2000,g 15.0,4.0
# From MPEC 2021-L04
C/2020 U4 (PANSTARRS),h,04/07.7632/2022,167.0369,120.0197,69.5182,1.002149,5.353888,2000,7.0,4.0
# From MPEC 2021-L04
C/2020 U5 (PANSTARRS),e,97.2757,107.3421,75.4118,13862,0.0000006,0.99972905,0.0000,04/27.8270/2022,2000,g  8.0,4.0
# From MPEC 2021-L04
C/2020 V2 (ZTF),h,05/08.4258/2023,131.5998,212.3437,162.3854,1.001365,2.228124,2000,4.9,4.0
# From MPEC 2021-L04
P/2020 V3 (PANSTARRS),e,23.0319,198.2769,249.3682,8.364413,0.0407428,0.25514495,4.8775,06/09.0/2021,2000,g  8.3,4.0
# From MPEC 2021-L04
P/2020 V4 (Rankin),e,14.2432,203.5093,256.9992,9.341977,0.0345180,0.44888183,358.6552,06/09.0/2021,2000,g  9.0,4.0
# From MPEC 2021-L04
C/2020 X2 (ATLAS),e,18.1907,105.4582,347.3442,16.39314,0.0148495,0.76646331,3.0468,06/09.0/2021,2000,g 10.6,4.0
# From MPEC 2021-L04
C/2020 Y2 (ATLAS),e,101.2885,26.5070,266.0984,1227,0.0000229,0.99744689,0.0000,06/17.6576/2022,2000,g  6.5,4.0
# From MPEC 2021-L04
C/2020 Y3 (ATLAS),e,83.0987,191.4281,342.0415,150.5286,0.0005337,0.98671867,0.0000,12/03.4804/2020,2000,g 13.5,4.0
# From MPEC 2021-L04
C/2021 A1 (Leonard),h,01/03.2924/2022,132.6861,255.8883,225.0901,1.000085,0.615182,2000,8.5,4.0
# From MPEC 2021-L04
C/2021 A2 (NEOWISE),e,106.9779,125.2380,338.8450,256.0464,0.0002406,0.99448174,0.0000,01/22.6294/2021,2000,g 13.5,4.0
# From MPEC 2021-L04
C/2021 A4 (NEOWISE),e,111.5711,307.0839,204.6606,43.01194,0.0034940,0.97336771,0.0000,03/20.0318/2021,2000,g 16.0,4.0
# From MPEC 2021-L04
C/2021 A6 (PANSTARRS),e,75.6090,164.0792,351.7505,11843,0.0000008,0.99933048,0.0000,05/05.0547/2021,2000,g  7.0,4.0
# From MPEC 2021-L04
C/2021 A7 (NEOWISE),e,78.1492,154.5189,356.0627,6940,0.0000017,0.99971647,0.0000,07/15.3242/2021,2000,g 10.0,4.0
# From MPEC 2021-L04
C/2021 A9 (PANSTARRS),h,12/01.5870/2023,158.0289,314.8407,211.4864,1.004387,7.757520,2000,6.0,4.0
# From MPEC 2021-L04
C/2021 A10 (NEOWISE),e,151.5253,188.3482,82.2734,90.86987,0.0011378,0.98604063,0.0000,03/15.2737/2021,2000,g 19.0,4.0
# From MPEC 2021-L04
C/2021 B3 (NEOWISE),e,119.4888,67.2870,293.5602,34.91064,0.0047782,0.93812376,0.4305,06/09.0/2021,2000,g 13.5,4.0
# From MPEC 2021-L04
C/2021 C1 (Rankin),e,143.0413,186.8921,336.3155,366737,0.0000000,0.99999051,0.0000,12/07.1569/2020,2000,g 11.5,4.0
# From MPEC 2021-BE3
P/2020 W1 (Rankin),e,10.7919,124.2594,264.8160,7.198281,0.0510342,0.26539670,21.9578,06/09.0/2021,2000,g 10.0,4.0
# From MPEC 2021-BE3
C/2020 W5 (Lemmon),h,11/30.1040/2020,88.5845,75.5098,24.4813,1.000951,3.364229,2000,15.0,4.0
# From MPEC 2021-BE3
P/2020 X1 (ATLAS),e,31.6734,56.0338,323.5491,4.521913,0.1024993,0.36451923,33.0523,06/09.0/2021,2000,g 13.0,4.0
# From MPEC 2021-BE3
C/2020 X2 (ATLAS),e,18.1908,105.4582,347.3486,16.39235,0.0148505,0.76645135,3.0466,06/09.0/2021,2000,g 10.6,4.0
# From MPEC 2021-BE3
C/2020 X4 (Leonard),e,80.4973,161.8941,139.5467,47.03452,0.0030555,0.88923395,0.6407,06/09.0/2021,2000,g  9.0,4.0
# From MPEC 2021-BE3
C/2020 Y2 (ATLAS),e,101.2874,26.5073,266.0974,1167,0.0000247,0.99731457,0.0000,06/17.7220/2022,2000,g  6.5,4.0
# From MPEC 2021-BE3
C/2020 Y3 (ATLAS),e,83.1052,191.4350,342.0931,165.6470,0.0004623,0.98792642,0.0000,12/03.5814/2020,2000,g 13.5,4.0
# From MPEC 2021-BE3
C/2021 A1 (Leonard),h,01/03.3090/2022,132.6860,255.8879,225.0917,1.000058,0.615188,2000,8.5,4.0
# From MPEC 2021-BE3
C/2021 A2 (NEOWISE),h,01/22.7038/2021,107.0289,125.2196,338.8850,1.001009,1.413481,2000,13.5,4.0
# From MPEC 2021-BE3
C/2021 A4 (NEOWISE),e,111.5846,307.0767,204.6253,45.33490,0.0032289,0.97472782,0.0000,03/19.9978/2021,2000,g 16.0,4.0
# From MPEC 2021-BE3
P/2021 A5 (PANSTARRS),e,18.1881,328.7676,61.0940,3.046041,0.1853961,0.13964094,38.8451,06/09.0/2021,2000,g 15.0,4.0
# From MPEC 2021-BE3
C/2021 A6 (PANSTARRS),e,75.5812,164.0865,351.2908,4367,0.0000034,0.99818350,0.0000,04/27.7595/2021,2000,g  7.0,4.0
# From MPEC 2021-BE3
C/2021 A7 (NEOWISE),e,78.1427,154.5381,356.0665,757.2654,0.0000473,0.99740045,0.0000,07/15.4985/2021,2000,g 10.0,4.0
# From MPEC 2021-BE3
C/2021 A9 (PANSTARRS),h,11/24.3263/2023,158.0895,314.7664,211.7319,1.036728,7.705433,2000,6.0,4.0
# From MPEC 2021-C25
C/2021 A10 (NEOWISE),e,151.5246,188.3496,82.2660,93.47410,0.0010906,0.98642888,0.0000,03/15.2628/2021,2000,g 19.0,4.0
